CCSDS_OMM_VERS = 2.0
CREATION_DATE  = 
ORIGINATOR     = 

OBJECT_NAME    = ORBVIEW 2 (SEASTAR)
OBJECT_ID      = 1997-037A
CENTER_NAME    = EARTH
REF_FRAME      = TEME
TIME_SYSTEM    = UTC
MEAN_ELEMENT_THEORY = SGP/SGP4

EPOCH          = 2025-12-03T07:06:02.640096
MEAN_MOTION    = 14.35405629
ECCENTRICITY   = .00021307
INCLINATION    = 98.8453
RA_OF_ASC_NODE = 134.1328
ARG_OF_PERICENTER = 10.9927
MEAN_ANOMALY   = 349.1303

EPHEMERIS_TYPE = 0
CLASSIFICATION_TYPE = U
NORAD_CAT_ID   = 24883
ELEMENT_SET_NO = 999
REV_AT_EPOCH   = 49464
BSTAR          = .20603552E-3
MEAN_MOTION_DOT = .545E-5
MEAN_MOTION_DDOT = 0

CCSDS_OMM_VERS = 2.0
CREATION_DATE  = 
ORIGINATOR     = 

OBJECT_NAME    = SL-16 R/B
OBJECT_ID      = 1998-043G
CENTER_NAME    = EARTH
REF_FRAME      = TEME
TIME_SYSTEM    = UTC
MEAN_ELEMENT_THEORY = SGP/SGP4

EPOCH          = 2025-12-03T07:49:39.507744
MEAN_MOTION    = 14.26021853
ECCENTRICITY   = .00089121
INCLINATION    = 98.8109
RA_OF_ASC_NODE = 285.0921
ARG_OF_PERICENTER = 297.1976
MEAN_ANOMALY   = 62.8295

EPHEMERIS_TYPE = 0
CLASSIFICATION_TYPE = U
NORAD_CAT_ID   = 25400
ELEMENT_SET_NO = 999
REV_AT_EPOCH   = 42525
BSTAR          = .70227695E-4
MEAN_MOTION_DOT = .122E-5
MEAN_MOTION_DDOT = 0

CCSDS_OMM_VERS = 2.0
CREATION_DATE  = 
ORIGINATOR     = 

OBJECT_NAME    = SL-16 R/B
OBJECT_ID      = 1998-045B
CENTER_NAME    = EARTH
REF_FRAME      = TEME
TIME_SYSTEM    = UTC
MEAN_ELEMENT_THEORY = SGP/SGP4

EPOCH          = 2025-12-03T08:53:23.128512
MEAN_MOTION    = 14.16175237
ECCENTRICITY   = .00074728
INCLINATION    = 71.0126
RA_OF_ASC_NODE = 24.1305
ARG_OF_PERICENTER = 191.2484
MEAN_ANOMALY   = 168.8474

EPHEMERIS_TYPE = 0
CLASSIFICATION_TYPE = U
NORAD_CAT_ID   = 25407
ELEMENT_SET_NO = 999
REV_AT_EPOCH   = 41346
BSTAR          = .85058594E-4
MEAN_MOTION_DOT = .121E-5
MEAN_MOTION_DDOT = 0

CCSDS_OMM_VERS = 2.0
CREATION_DATE  = 
ORIGINATOR     = 

OBJECT_NAME    = ISS (ZARYA)
OBJECT_ID      = 1998-067A
CENTER_NAME    = EARTH
REF_FRAME      = TEME
TIME_SYSTEM    = UTC
MEAN_ELEMENT_THEORY = SGP/SGP4

EPOCH          = 2025-12-03T01:26:08.635488
MEAN_MOTION    = 15.49262423
ECCENTRICITY   = .00036204
INCLINATION    = 51.6309
RA_OF_ASC_NODE = 190.4017
ARG_OF_PERICENTER = 198.7080
MEAN_ANOMALY   = 161.3776

EPHEMERIS_TYPE = 0
CLASSIFICATION_TYPE = U
NORAD_CAT_ID   = 25544
ELEMENT_SET_NO = 999
REV_AT_EPOCH   = 54135
BSTAR          = .21764811E-3
MEAN_MOTION_DOT = .1167E-3
MEAN_MOTION_DDOT = 0

CCSDS_OMM_VERS = 2.0
CREATION_DATE  = 
ORIGINATOR     = 

OBJECT_NAME    = CZ-4B R/B
OBJECT_ID      = 1999-025C
CENTER_NAME    = EARTH
REF_FRAME      = TEME
TIME_SYSTEM    = UTC
MEAN_ELEMENT_THEORY = SGP/SGP4

EPOCH          = 2025-12-03T08:32:53.854368
MEAN_MOTION    = 14.18239914
ECCENTRICITY   = .0036105
INCLINATION    = 98.6781
RA_OF_ASC_NODE = 18.8455
ARG_OF_PERICENTER = 261.7259
MEAN_ANOMALY   = 108.7933

EPHEMERIS_TYPE = 0
CLASSIFICATION_TYPE = U
NORAD_CAT_ID   = 25732
ELEMENT_SET_NO = 999
REV_AT_EPOCH   = 37451
BSTAR          = .91868037E-4
MEAN_MOTION_DOT = .147E-5
MEAN_MOTION_DDOT = 0

CCSDS_OMM_VERS = 2.0
CREATION_DATE  = 
ORIGINATOR     = 

OBJECT_NAME    = OKEAN-O
OBJECT_ID      = 1999-039A
CENTER_NAME    = EARTH
REF_FRAME      = TEME
TIME_SYSTEM    = UTC
MEAN_ELEMENT_THEORY = SGP/SGP4

EPOCH          = 2025-12-03T02:56:24.224640
MEAN_MOTION    = 14.80133674
ECCENTRICITY   = .0000815
INCLINATION    = 97.9616
RA_OF_ASC_NODE = 32.9068
ARG_OF_PERICENTER = 76.7539
MEAN_ANOMALY   = 283.3764

EPHEMERIS_TYPE = 0
CLASSIFICATION_TYPE = U
NORAD_CAT_ID   = 25860
ELEMENT_SET_NO = 999
REV_AT_EPOCH   = 42010
BSTAR          = .1429195E-3
MEAN_MOTION_DOT = .1032E-4
MEAN_MOTION_DDOT = 0

CCSDS_OMM_VERS = 2.0
CREATION_DATE  = 
ORIGINATOR     = 

OBJECT_NAME    = SL-16 R/B
OBJECT_ID      = 1999-039B
CENTER_NAME    = EARTH
REF_FRAME      = TEME
TIME_SYSTEM    = UTC
MEAN_ELEMENT_THEORY = SGP/SGP4

EPOCH          = 2025-12-03T03:02:38.453280
MEAN_MOTION    = 14.81563286
ECCENTRICITY   = .00142165
INCLINATION    = 98.0140
RA_OF_ASC_NODE = 31.2770
ARG_OF_PERICENTER = 206.2995
MEAN_ANOMALY   = 153.7497

EPHEMERIS_TYPE = 0
CLASSIFICATION_TYPE = U
NORAD_CAT_ID   = 25861
ELEMENT_SET_NO = 999
REV_AT_EPOCH   = 42256
BSTAR          = .12219794E-3
MEAN_MOTION_DOT = .907E-5
MEAN_MOTION_DDOT = 0

CCSDS_OMM_VERS = 2.0
CREATION_DATE  = 
ORIGINATOR     = 

OBJECT_NAME    = DELTA 2 R/B
OBJECT_ID      = 1999-041E
CENTER_NAME    = EARTH
REF_FRAME      = TEME
TIME_SYSTEM    = UTC
MEAN_ELEMENT_THEORY = SGP/SGP4

EPOCH          = 2025-12-03T05:23:41.170848
MEAN_MOTION    = 14.11360889
ECCENTRICITY   = .05048213
INCLINATION    = 51.7621
RA_OF_ASC_NODE = 326.4280
ARG_OF_PERICENTER = 63.7253
MEAN_ANOMALY   = 301.4641

EPHEMERIS_TYPE = 0
CLASSIFICATION_TYPE = U
NORAD_CAT_ID   = 25876
ELEMENT_SET_NO = 999
REV_AT_EPOCH   = 34940
BSTAR          = .32336866E-3
MEAN_MOTION_DOT = .1764E-4
MEAN_MOTION_DDOT = 0

CCSDS_OMM_VERS = 2.0
CREATION_DATE  = 
ORIGINATOR     = 

OBJECT_NAME    = HELIOS 1B
OBJECT_ID      = 1999-064A
CENTER_NAME    = EARTH
REF_FRAME      = TEME
TIME_SYSTEM    = UTC
MEAN_ELEMENT_THEORY = SGP/SGP4

EPOCH          = 2025-12-03T07:36:40.889088
MEAN_MOTION    = 14.87216613
ECCENTRICITY   = .0002184
INCLINATION    = 98.1755
RA_OF_ASC_NODE = 231.7032
ARG_OF_PERICENTER = 55.0719
MEAN_ANOMALY   = 305.0701

EPHEMERIS_TYPE = 0
CLASSIFICATION_TYPE = U
NORAD_CAT_ID   = 25977
ELEMENT_SET_NO = 999
REV_AT_EPOCH   = 67093
BSTAR          = .36581136E-3
MEAN_MOTION_DOT = .3236E-4
MEAN_MOTION_DDOT = 0

CCSDS_OMM_VERS = 2.0
CREATION_DATE  = 
ORIGINATOR     = 

OBJECT_NAME    = TERRA
OBJECT_ID      = 1999-068A
CENTER_NAME    = EARTH
REF_FRAME      = TEME
TIME_SYSTEM    = UTC
MEAN_ELEMENT_THEORY = SGP/SGP4

EPOCH          = 2025-12-03T06:50:11.283648
MEAN_MOTION    = 14.60934762
ECCENTRICITY   = .00034007
INCLINATION    = 97.9762
RA_OF_ASC_NODE = 29.3156
ARG_OF_PERICENTER = 116.8267
MEAN_ANOMALY   = 317.1669

EPHEMERIS_TYPE = 0
CLASSIFICATION_TYPE = U
NORAD_CAT_ID   = 25994
ELEMENT_SET_NO = 999
REV_AT_EPOCH   = 38100
BSTAR          = .16958517E-3
MEAN_MOTION_DOT = .786E-5
MEAN_MOTION_DDOT = 0

CCSDS_OMM_VERS = 2.0
CREATION_DATE  = 
ORIGINATOR     = 

OBJECT_NAME    = SL-16 R/B
OBJECT_ID      = 2000-006B
CENTER_NAME    = EARTH
REF_FRAME      = TEME
TIME_SYSTEM    = UTC
MEAN_ELEMENT_THEORY = SGP/SGP4

EPOCH          = 2025-12-03T06:57:52.592256
MEAN_MOTION    = 14.15807638
ECCENTRICITY   = .00179471
INCLINATION    = 71.0028
RA_OF_ASC_NODE = 300.5262
ARG_OF_PERICENTER = 321.8414
MEAN_ANOMALY   = 38.1437

EPHEMERIS_TYPE = 0
CLASSIFICATION_TYPE = U
NORAD_CAT_ID   = 26070
ELEMENT_SET_NO = 999
REV_AT_EPOCH   = 33491
BSTAR          = .19091333E-3
MEAN_MOTION_DOT = .328E-5
MEAN_MOTION_DDOT = 0

CCSDS_OMM_VERS = 2.0
CREATION_DATE  = 
ORIGINATOR     = 

OBJECT_NAME    = TITAN 4B R/B
OBJECT_ID      = 2000-047B
CENTER_NAME    = EARTH
REF_FRAME      = TEME
TIME_SYSTEM    = UTC
MEAN_ELEMENT_THEORY = SGP/SGP4

EPOCH          = 2025-12-03T07:53:59.144928
MEAN_MOTION    = 15.08666874
ECCENTRICITY   = .00396734
INCLINATION    = 67.9897
RA_OF_ASC_NODE = 311.2827
ARG_OF_PERICENTER = 155.7695
MEAN_ANOMALY   = 204.5331

EPHEMERIS_TYPE = 0
CLASSIFICATION_TYPE = U
NORAD_CAT_ID   = 26474
ELEMENT_SET_NO = 999
REV_AT_EPOCH   = 37837
BSTAR          = .32828311E-3
MEAN_MOTION_DOT = .5117E-4
MEAN_MOTION_DDOT = 0

