ORBVIEW 2 (SEASTAR)     
1 24883U 97037A   25337.29586389  .00000545  00000+0  20604-3 0  9999
2 24883  98.8453 134.1328 0002130  10.9927 349.1303 14.35405629494649
SL-16 R/B               
1 25400U 98043G   25337.32615171  .00000122  00000+0  70228-4 0  9998
2 25400  98.8109 285.0921 0008912 297.1976  62.8295 14.26021853425258
SL-16 R/B               
1 25407U 98045B   25337.37040658  .00000121  00000+0  85059-4 0  9991
2 25407  71.0126  24.1305 0007472 191.2484 168.8474 14.16175237413464
ISS (ZARYA)             
1 25544U 98067A   25337.05982217  .00011670  00000+0  21765-3 0  9992
2 25544  51.6309 190.4017 0003620 198.7080 161.3776 15.49262423541359
CZ-4B R/B               
1 25732U 99025C   25337.35617887  .00000147  00000+0  91868-4 0  9996
2 25732  98.6781  18.8455 0036105 261.7259 108.7933 14.18239914374511
OKEAN-O                 
1 25860U 99039A   25337.12250260  .00001032  00000+0  14292-3 0  9995
2 25860  97.9616  32.9068 0000815  76.7539 283.3764 14.80133674420107
SL-16 R/B               
1 25861U 99039B   25337.12683395  .00000907  00000+0  12220-3 0  9994
2 25861  98.0140  31.2770 0014216 206.2995 153.7497 14.81563286422562
DELTA 2 R/B             
1 25876U 99041E   25337.22478207  .00001764  00000+0  32337-3 0  9991
2 25876  51.7621 326.4280 0504821  63.7253 301.4641 14.11360889349403
HELIOS 1B               
1 25977U 99064A   25337.31713992  .00003236  00000+0  36581-3 0  9992
2 25977  98.1755 231.7032 0002184  55.0719 305.0701 14.87216613670937
TERRA                   
1 25994U 99068A   25337.28485282  .00000786  00000+0  16959-3 0  9993
2 25994  97.9762  29.3156 0003400 116.8267 317.1669 14.60934762381002
SL-16 R/B               
1 26070U 00006B   25337.29019204  .00000328  00000+0  19091-3 0  9993
2 26070  71.0028 300.5262 0017947 321.8414  38.1437 14.15807638334913
TITAN 4B R/B            
1 26474U 00047B   25337.32915677  .00005117  00000+0  32828-3 0  9993
2 26474  67.9897 311.2827 0039673 155.7695 204.5331 15.08666874378378
